{
"type": "FeatureCollection",
"name": "districts",
"crs": { "type": "name", "properties": { "name": "urn:ogc:def:crs:OGC:1.3:CRS84" } },
"features": [
{ "type": "Feature", "properties": { "district": "Bang Bon", "district_id": 1 }, "geometry": { "type": "Polygon", "coordinates": [ [ [ 100.446797058000072, 13.682558432000064 ], [ 100.437733905000073, 13.693684476000044 ], [ 100.42782137100005, 13.687613030000023 ], [ 100.392759117000082, 13.669048136000072 ], [ 100.388385140000082, 13.668039860000022 ], [ 100.387422628000081, 13.670451990000061 ], [ 100.384844482000062, 13.671401884000034 ], [ 100.360565587000053, 13.661301027000036 ], [ 100.357257395000033, 13.661681299000065 ], [ 100.35661375400008, 13.65990043000005 ], [ 100.351107887000069, 13.657480200000066 ], [ 100.349523885000053, 13.655126660000064 ], [ 100.34683704300005, 13.655339513000058 ], [ 100.346323811000047, 13.649173861000065 ], [ 100.344676390000075, 13.649228008000023 ], [ 100.345449337000048, 13.644725233000031 ], [ 100.347170575000064, 13.645060569000066 ], [ 100.347358338000049, 13.643637997000042 ], [ 100.348606162000067, 13.643725023000059 ], [ 100.348519681000084, 13.641008958000043 ], [ 100.35024229000004, 13.640497348000054 ], [ 100.354340409000088, 13.640888890000042 ], [ 100.35544907600007, 13.636540633000038 ], [ 100.358697088000042, 13.637319 ], [ 100.359058883000046, 13.632780154000045 ], [ 100.366005871000084, 13.633624022000049 ], [ 100.37179593500008, 13.622730904000036 ], [ 100.376482084000088, 13.619703151000067 ], [ 100.446797058000072, 13.682558432000064 ] ] ] } },
{ "type": "Feature", "properties": { "district": "Bang Kapi", "district_id": 2 }, "geometry": { "type": "Polygon", "coordinates": [ [ [ 100.664624408000066, 13.775369817000069 ], [ 100.656181107000066, 13.770707147000053 ], [ 100.648166858000081, 13.784770757000047 ], [ 100.642717013000038, 13.786944492000032 ], [ 100.640476894000074, 13.79222672700007 ], [ 100.639251773000069, 13.804108570000039 ], [ 100.634103588000073, 13.80949842800004 ], [ 100.631000804000053, 13.815476059000048 ], [ 100.631333863000066, 13.819191422000074 ], [ 100.625980739000056, 13.819306537000045 ], [ 100.624478120000049, 13.817398727000068 ], [ 100.615064201000052, 13.799774373000048 ], [ 100.623636508000061, 13.800218648000055 ], [ 100.625913079000043, 13.788103773000046 ], [ 100.629049330000043, 13.788697543000069 ], [ 100.63065504900004, 13.784105992000036 ], [ 100.629248748000066, 13.775091386000042 ], [ 100.628272913000046, 13.775646442000038 ], [ 100.630489333000071, 13.763254790000076 ], [ 100.615246889000048, 13.761274456000024 ], [ 100.604095120000068, 13.751200633000053 ], [ 100.60125180600005, 13.748090111000067 ], [ 100.611090408000052, 13.743826138000031 ], [ 100.635810138000068, 13.750120755000069 ], [ 100.645563788000061, 13.746450692000053 ], [ 100.648550294000074, 13.744072596000024 ], [ 100.647476080000047, 13.742633450000028 ], [ 100.648605092000082, 13.741820346000054 ], [ 100.659086135000052, 13.738385275000041 ], [ 100.663330947000077, 13.740227551000032 ], [ 100.663034630000084, 13.742206295000074 ], [ 100.66631811700006, 13.747047328000065 ], [ 100.672255852000035, 13.749486771000022 ], [ 100.67701455200006, 13.749064367000074 ], [ 100.678886566000074, 13.752104317000033 ], [ 100.669718972000055, 13.756283395000025 ], [ 100.668802897000035, 13.766623625000022 ], [ 100.664624408000066, 13.775369817000069 ] ] ] } },
{ "type": "Feature", "properties": { "district": "Bang Khae", "district_id": 3 }, "geometry": { "type": "Polygon", "coordinates": [ [ [ 100.42782137100005, 13.687613030000023 ], [ 100.424869590000071, 13.732060242000045 ], [ 100.417756244000032, 13.731224288000021 ], [ 100.416668108000067, 13.735610698000073 ], [ 100.415511016000039, 13.735832908000077 ], [ 100.415972924000073, 13.738278807000029 ], [ 100.414408079000054, 13.738800737000076 ], [ 100.413389564000056, 13.74793375400003 ], [ 100.40618470000004, 13.749437693000061 ], [ 100.369106359000057, 13.753897702000074 ], [ 100.352683349000074, 13.752164031000063 ], [ 100.359359482000059, 13.738002047000066 ], [ 100.381407709000086, 13.691572330000042 ], [ 100.385235775000069, 13.67593987500004 ], [ 100.384844482000062, 13.671401884000034 ], [ 100.387422628000081, 13.670451990000061 ], [ 100.388385140000082, 13.668039860000022 ], [ 100.392759117000082, 13.669048136000072 ], [ 100.42782137100005, 13.687613030000023 ] ] ] } },
{ "type": "Feature", "properties": { "district": "Bang Khen", "district_id": 4 }, "geometry": { "type": "Polygon", "coordinates": [ [ [ 100.684496507000063, 13.874248293000051 ], [ 100.681312140000045, 13.879676755000048 ], [ 100.675809233000052, 13.879105022000033 ], [ 100.673808066000049, 13.881099594000034 ], [ 100.67253097400004, 13.879678031000026 ], [ 100.669335445000058, 13.88113297600006 ], [ 100.664812316000052, 13.881073327000024 ], [ 100.662531656000056, 13.878854804000071 ], [ 100.659592068000052, 13.879494058000034 ], [ 100.656186107000053, 13.881507505000059 ], [ 100.655336638000051, 13.885582849000059 ], [ 100.653111064000086, 13.886380402000043 ], [ 100.652633821000052, 13.882945613000061 ], [ 100.644278084000064, 13.88275800200006 ], [ 100.642952855000033, 13.885728264000022 ], [ 100.64033327900006, 13.886746310000035 ], [ 100.629542807000064, 13.885542878000024 ], [ 100.623883237000086, 13.882939403000023 ], [ 100.612369642000033, 13.886220739000066 ], [ 100.608797784000046, 13.888467928000068 ], [ 100.611363911000069, 13.892374723000046 ], [ 100.608696688000066, 13.89570352100003 ], [ 100.611131830000033, 13.899779846000058 ], [ 100.594813283000065, 13.887630844000057 ], [ 100.588143762000072, 13.879615240000021 ], [ 100.586547205000045, 13.858933983000043 ], [ 100.589866099000062, 13.843929078000031 ], [ 100.602362135000078, 13.846864564000043 ], [ 100.606987397000069, 13.849267936000047 ], [ 100.620002940000063, 13.848368678000043 ], [ 100.628681464000067, 13.842687044000058 ], [ 100.632949283000073, 13.842546298000059 ], [ 100.637121758000035, 13.844668458000058 ], [ 100.645986850000043, 13.847368251000034 ], [ 100.648148988000059, 13.847620618000064 ], [ 100.648730639000064, 13.846211269000037 ], [ 100.658640148000075, 13.847763352000072 ], [ 100.65830303000007, 13.85239137700006 ], [ 100.661144687000046, 13.852579409000043 ], [ 100.663199931000065, 13.856033389000061 ], [ 100.664746781000076, 13.854693028000042 ], [ 100.669678385000054, 13.85695736100007 ], [ 100.675457492000078, 13.856381383000041 ], [ 100.680365520000066, 13.858667276000062 ], [ 100.683114280000041, 13.862001746000033 ], [ 100.685774761000062, 13.869323983000072 ], [ 100.684496507000063, 13.874248293000051 ] ] ] } },
{ "type": "Feature", "properties": { "district": "Bang Kho Laem", "district_id": 5 }, "geometry": { "type": "Polygon", "coordinates": [ [ [ 100.529945739000084, 13.702543641000034 ], [ 100.524924426000041, 13.700885524000057 ], [ 100.520642896000084, 13.704169848000049 ], [ 100.519675719000077, 13.703222842000059 ], [ 100.514625296000077, 13.704920816000026 ], [ 100.516953740000076, 13.709648942000058 ], [ 100.50817089700007, 13.712460984000074 ], [ 100.49863760900007, 13.705137064000041 ], [ 100.492007730000068, 13.700614447000078 ], [ 100.489998091000075, 13.695261866000067 ], [ 100.491824693000069, 13.691569282000046 ], [ 100.495558776000053, 13.688490226000056 ], [ 100.516981846000078, 13.682678629000065 ], [ 100.531760578000046, 13.698253744000056 ], [ 100.529945739000084, 13.702543641000034 ] ] ] } },
{ "type": "Feature", "properties": { "district": "Bang Khun Thian", "district_id": 6 }, "geometry": { "type": "Polygon", "coordinates": [ [ [ 100.376482084000088, 13.619703151000067 ], [ 100.378518194000037, 13.594277249000072 ], [ 100.384361682000076, 13.589517468000054 ], [ 100.385974913000041, 13.584963827000024 ], [ 100.384995226000058, 13.579129454000054 ], [ 100.386604343000045, 13.577947255000026 ], [ 100.386647362000076, 13.574693936000074 ], [ 100.387979578000056, 13.574289646000068 ], [ 100.389487908000035, 13.569784795000032 ], [ 100.391485228000079, 13.568898409000042 ], [ 100.391306642000075, 13.563261139000076 ], [ 100.393121174000044, 13.561474597000029 ], [ 100.39467028200005, 13.554985738000028 ], [ 100.395822016000068, 13.553472173000046 ], [ 100.401019897000083, 13.552822426000034 ], [ 100.404369170000052, 13.555059349000032 ], [ 100.408517730000085, 13.554532947000041 ], [ 100.41189776300007, 13.55547600400007 ], [ 100.412555998000073, 13.557241341000065 ], [ 100.415213885000071, 13.557151797000074 ], [ 100.414644136000049, 13.551455988000043 ], [ 100.42008972900004, 13.545241469000075 ], [ 100.418323043000044, 13.540538860000026 ], [ 100.41484827000005, 13.538832125000056 ], [ 100.414066977000061, 13.535871970000073 ], [ 100.406325868000067, 13.535797271000035 ], [ 100.40682494400005, 13.50222 ], [ 100.408838252000066, 13.493389571000023 ], [ 100.421627446000059, 13.494743155000037 ], [ 100.423045925000054, 13.496820329000059 ], [ 100.423691207000047, 13.495846568000047 ], [ 100.425812912000083, 13.49756276200003 ], [ 100.430737291000071, 13.495834451000064 ], [ 100.434909593000043, 13.496585818000028 ], [ 100.43493385000005, 13.498092646000032 ], [ 100.437083176000044, 13.496768709000037 ], [ 100.443058911000037, 13.500358685000037 ], [ 100.453693435000048, 13.501979764000055 ], [ 100.444462011000041, 13.553194148000046 ], [ 100.446586515000035, 13.587017189000051 ], [ 100.450832923000064, 13.594559305000075 ], [ 100.453968202000055, 13.60601368500005 ], [ 100.457547899000076, 13.604401302000042 ], [ 100.463947659000041, 13.605849188000036 ], [ 100.465868297000043, 13.603900447000058 ], [ 100.466863811000053, 13.596954049000033 ], [ 100.469694497000035, 13.592667428000027 ], [ 100.473653884000043, 13.593876167000076 ], [ 100.473097963000043, 13.59903835800003 ], [ 100.476930166000045, 13.602955251000026 ], [ 100.479581718000077, 13.606089841000028 ], [ 100.481712076000065, 13.615343514000074 ], [ 100.478376625000067, 13.619777083000031 ], [ 100.476195008000047, 13.620111494000071 ], [ 100.472147010000072, 13.62406782000005 ], [ 100.475654449000046, 13.63054298000003 ], [ 100.470333673000084, 13.659040329000049 ], [ 100.464608773000066, 13.655674945000044 ], [ 100.461150647000068, 13.658870914000033 ], [ 100.458300054000063, 13.65785201500006 ], [ 100.450387707000061, 13.660809143000051 ], [ 100.453428921000068, 13.66890231800005 ], [ 100.451548512000045, 13.675430839000057 ], [ 100.448844876000067, 13.675332466000043 ], [ 100.448621181000078, 13.681527655000025 ], [ 100.446797058000072, 13.682558432000064 ], [ 100.376482084000088, 13.619703151000067 ] ] ] } },
{ "type": "Feature", "properties": { "district": "Bang Na", "district_id": 7 }, "geometry": { "type": "Polygon", "coordinates": [ [ [ 100.640236003000041, 13.677941022000027 ], [ 100.624654929000087, 13.678408503000071 ], [ 100.622771488000069, 13.684428812000021 ], [ 100.610524951000059, 13.684276433000036 ], [ 100.600332527000035, 13.679943095000056 ], [ 100.588769839000065, 13.683015013000045 ], [ 100.579458378000083, 13.669222685000022 ], [ 100.592102526000076, 13.663807903000077 ], [ 100.600439640000047, 13.659463852000044 ], [ 100.601324094000063, 13.657032419000075 ], [ 100.602809619000084, 13.656506618000037 ], [ 100.603513728000053, 13.65840122000003 ], [ 100.60556177400008, 13.65847713200003 ], [ 100.608716470000047, 13.657214762000024 ], [ 100.608212200000082, 13.655920670000057 ], [ 100.616373793000037, 13.652675052000063 ], [ 100.617843389000086, 13.656061254000065 ], [ 100.632924781000042, 13.648844289000067 ], [ 100.636277975000041, 13.648502807000057 ], [ 100.640758193000067, 13.654635846000076 ], [ 100.64480773300005, 13.653638436000051 ], [ 100.649709981000058, 13.652504770000064 ], [ 100.653792291000059, 13.668975588000023 ], [ 100.64523315200006, 13.669607532000043 ], [ 100.640236003000041, 13.677941022000027 ] ] ] } },
{ "type": "Feature", "properties": { "district": "Bang Phlat", "district_id": 8 }, "geometry": { "type": "Polygon", "coordinates": [ [ [ 100.466176870000083, 13.788917403000028 ], [ 100.465938690000087, 13.787158609000073 ], [ 100.469105991000049, 13.787104732000046 ], [ 100.490971988000069, 13.761928724000029 ], [ 100.49499744700006, 13.765741690000027 ], [ 100.499039813000081, 13.77266572700006 ], [ 100.503652722000083, 13.783575449000068 ], [ 100.513886854000077, 13.795300032000057 ], [ 100.516497561000051, 13.800358098000061 ], [ 100.517493340000044, 13.808578362000048 ], [ 100.515255130000071, 13.813274840000076 ], [ 100.500681346000079, 13.800499168000044 ], [ 100.466176870000083, 13.788917403000028 ] ] ] } },
{ "type": "Feature", "properties": { "district": "Bang Rak", "district_id": 9 }, "geometry": { "type": "Polygon", "coordinates": [ [ [ 100.512031695000076, 13.719335614000045 ], [ 100.517414002000066, 13.718105788000059 ], [ 100.544745374000058, 13.726166253000031 ], [ 100.515687797000055, 13.738046738000037 ], [ 100.515502248000075, 13.732442945000059 ], [ 100.512298349000048, 13.729392587000063 ], [ 100.512031695000076, 13.719335614000045 ] ] ] } },
{ "type": "Feature", "properties": { "district": "Bang Sue", "district_id": 10 }, "geometry": { "type": "Polygon", "coordinates": [ [ [ 100.515255130000071, 13.813274840000076 ], [ 100.517493340000044, 13.808578362000048 ], [ 100.516497561000051, 13.800358098000061 ], [ 100.532330992000084, 13.798213085000043 ], [ 100.533203826000033, 13.799827589000074 ], [ 100.537424276000081, 13.79785442900004 ], [ 100.545002336000039, 13.817713745000049 ], [ 100.543407370000068, 13.820661906000055 ], [ 100.537117045000059, 13.821651881000037 ], [ 100.543629472000077, 13.849628112000062 ], [ 100.535974270000054, 13.846042003000036 ], [ 100.513341636000064, 13.826261561000024 ], [ 100.51309916200006, 13.824733355000035 ], [ 100.511833291000073, 13.826076711000042 ], [ 100.509377275000077, 13.825611524000067 ], [ 100.510121712000057, 13.824187724000069 ], [ 100.507659165000064, 13.822805366000068 ], [ 100.506293750000054, 13.819339220000074 ], [ 100.507400598000061, 13.816038387000049 ], [ 100.515255130000071, 13.813274840000076 ] ] ] } },
{ "type": "Feature", "properties": { "district": "Bangkok Noi", "district_id": 11 }, "geometry": { "type": "Polygon", "coordinates": [ [ [ 100.465938690000087, 13.787158609000073 ], [ 100.467677970000068, 13.779695189000051 ], [ 100.457610904000035, 13.777296030000059 ], [ 100.45356580400005, 13.767977694000024 ], [ 100.45414407700008, 13.762992496000038 ], [ 100.46196302900006, 13.75155976800005 ], [ 100.462052192000044, 13.744419748000041 ], [ 100.471335043000067, 13.743193231000078 ], [ 100.477091017000077, 13.744056727000043 ], [ 100.478141287000085, 13.746345767000037 ], [ 100.482274234000045, 13.746123872000055 ], [ 100.488299250000068, 13.748209494000037 ], [ 100.487940010000045, 13.756848931000036 ], [ 100.490971988000069, 13.761928724000029 ], [ 100.469105991000049, 13.787104732000046 ], [ 100.465938690000087, 13.787158609000073 ] ] ] } },
{ "type": "Feature", "properties": { "district": "Bangkok Yai", "district_id": 12 }, "geometry": { "type": "Polygon", "coordinates": [ [ [ 100.462052192000044, 13.744419748000041 ], [ 100.462933732000067, 13.732249306000028 ], [ 100.467191312000068, 13.725267655000039 ], [ 100.471637968000039, 13.722443215000055 ], [ 100.478561568000032, 13.722594229000038 ], [ 100.484574891000079, 13.724873182000067 ], [ 100.487377633000051, 13.735195452000028 ], [ 100.491969798000071, 13.742172671000048 ], [ 100.488299250000068, 13.748209494000037 ], [ 100.482274234000045, 13.746123872000055 ], [ 100.478141287000085, 13.746345767000037 ], [ 100.477091017000077, 13.744056727000043 ], [ 100.471335043000067, 13.743193231000078 ], [ 100.462052192000044, 13.744419748000041 ] ] ] } },
{ "type": "Feature", "properties": { "district": "Bueng Kum", "district_id": 13 }, "geometry": { "type": "Polygon", "coordinates": [ [ [ 100.664624408000066, 13.775369817000069 ], [ 100.675135341000043, 13.781205881000062 ], [ 100.67380372000008, 13.783834504000026 ], [ 100.676566690000072, 13.786744 ], [ 100.673539328000061, 13.796316345000037 ], [ 100.668683263000048, 13.805671519000043 ], [ 100.666646813000057, 13.805101250000064 ], [ 100.662866591000068, 13.810090302000049 ], [ 100.660132313000076, 13.824427495000066 ], [ 100.661265643000036, 13.825779140000066 ], [ 100.661422670000036, 13.833478608000064 ], [ 100.657906247000085, 13.832988452000052 ], [ 100.657304995000061, 13.835574575000066 ], [ 100.648599748000038, 13.833888783000077 ], [ 100.647726515000045, 13.844167646000074 ], [ 100.650214966000078, 13.844833143000074 ], [ 100.645986850000043, 13.847368251000034 ], [ 100.637121758000035, 13.844668458000058 ], [ 100.624478120000049, 13.817398727000068 ], [ 100.625980739000056, 13.819306537000045 ], [ 100.631333863000066, 13.819191422000074 ], [ 100.631000804000053, 13.815476059000048 ], [ 100.634103588000073, 13.80949842800004 ], [ 100.639251773000069, 13.804108570000039 ], [ 100.640476894000074, 13.79222672700007 ], [ 100.642717013000038, 13.786944492000032 ], [ 100.648166858000081, 13.784770757000047 ], [ 100.656181107000066, 13.770707147000053 ], [ 100.664624408000066, 13.775369817000069 ] ] ] } },
{ "type": "Feature", "properties": { "district": "Chatuchak", "district_id": 14 }, "geometry": { "type": "Polygon", "coordinates": [ [ [ 100.586547205000045, 13.858933983000043 ], [ 100.557895100000053, 13.854132105000076 ], [ 100.543629472000077, 13.849628112000062 ], [ 100.537117045000059, 13.821651881000037 ], [ 100.543407370000068, 13.820661906000055 ], [ 100.545002336000039, 13.817713745000049 ], [ 100.537424276000081, 13.79785442900004 ], [ 100.561626586000045, 13.794959305000077 ], [ 100.566456863000042, 13.79467806200006 ], [ 100.567465202000051, 13.799281553000071 ], [ 100.574896225000032, 13.801069838000046 ], [ 100.588341394000054, 13.802980927000021 ], [ 100.591117974000042, 13.837485107000077 ], [ 100.589866099000062, 13.843929078000031 ], [ 100.586547205000045, 13.858933983000043 ] ] ] } },
{ "type": "Feature", "properties": { "district": "Chom Thong", "district_id": 15 }, "geometry": { "type": "Polygon", "coordinates": [ [ [ 100.446797058000072, 13.682558432000064 ], [ 100.448621181000078, 13.681527655000025 ], [ 100.448844876000067, 13.675332466000043 ], [ 100.451548512000045, 13.675430839000057 ], [ 100.453428921000068, 13.66890231800005 ], [ 100.450387707000061, 13.660809143000051 ], [ 100.458300054000063, 13.65785201500006 ], [ 100.461150647000068, 13.658870914000033 ], [ 100.464608773000066, 13.655674945000044 ], [ 100.470333673000084, 13.659040329000049 ], [ 100.470070049000071, 13.660184791000063 ], [ 100.475891573000069, 13.660888700000044 ], [ 100.475796512000045, 13.661882128000059 ], [ 100.475563556000054, 13.663577070000031 ], [ 100.482132512000078, 13.664770629000031 ], [ 100.480190632000074, 13.669203700000025 ], [ 100.488534539000057, 13.679530983000063 ], [ 100.487359314000059, 13.682491625000068 ], [ 100.488983287000053, 13.684649896000053 ], [ 100.481510259000061, 13.690485569000032 ], [ 100.482545280000068, 13.694834889000049 ], [ 100.479540932000077, 13.69803894100005 ], [ 100.476412050000079, 13.711178277000045 ], [ 100.471920242000067, 13.710365916000057 ], [ 100.468535800000041, 13.712388479000026 ], [ 100.469234675000052, 13.715962863000073 ], [ 100.462839612000039, 13.717891199000064 ], [ 100.463335586000085, 13.714834017000044 ], [ 100.455197235000071, 13.712577486000043 ], [ 100.455890095000086, 13.708429349000028 ], [ 100.452744352000082, 13.710118799000043 ], [ 100.449985339000079, 13.705328880000025 ], [ 100.439113275000068, 13.709361467000065 ], [ 100.434700138000039, 13.698903319000067 ], [ 100.437733905000073, 13.693684476000044 ], [ 100.446797058000072, 13.682558432000064 ] ] ] } },
{ "type": "Feature", "properties": { "district": "Din Daeng", "district_id": 16 }, "geometry": { "type": "Polygon", "coordinates": [ [ [ 100.561626586000045, 13.794959305000077 ], [ 100.561307459000034, 13.787063635000038 ], [ 100.548342729000069, 13.763548216000061 ], [ 100.543431214000066, 13.762715976000038 ], [ 100.550397282000063, 13.758688550000045 ], [ 100.552465392000045, 13.75598823200005 ], [ 100.564968500000077, 13.75512621300004 ], [ 100.566835185000059, 13.76152459900004 ], [ 100.573416088000045, 13.770911003000037 ], [ 100.574896225000032, 13.801069838000046 ], [ 100.567465202000051, 13.799281553000071 ], [ 100.566456863000042, 13.79467806200006 ], [ 100.561626586000045, 13.794959305000077 ] ] ] } },
{ "type": "Feature", "properties": { "district": "Don Mueang", "district_id": 17 }, "geometry": { "type": "Polygon", "coordinates": [ [ [ 100.611131830000033, 13.899779846000058 ], [ 100.626593626000044, 13.926129569000068 ], [ 100.622545459000037, 13.950251041000058 ], [ 100.612847032000047, 13.955198179000035 ], [ 100.606525949000059, 13.954378499000029 ], [ 100.604225150000048, 13.954255192000062 ], [ 100.605677143000037, 13.944099922000078 ], [ 100.591784818000065, 13.950337601000058 ], [ 100.574060669000062, 13.954633216000047 ], [ 100.567548358000067, 13.951203277000047 ], [ 100.558893117000082, 13.914457016000028 ], [ 100.563183291000087, 13.91333430800006 ], [ 100.571789460000048, 13.906954042000052 ], [ 100.587478445000045, 13.899376195000059 ], [ 100.582738258000063, 13.890774403000023 ], [ 100.594813283000065, 13.887630844000057 ], [ 100.611131830000033, 13.899779846000058 ] ] ] } },
{ "type": "Feature", "properties": { "district": "Dusit", "district_id": 18 }, "geometry": { "type": "Polygon", "coordinates": [ [ [ 100.499039813000081, 13.77266572700006 ], [ 100.503673636000087, 13.769952149000062 ], [ 100.509399246000044, 13.763650817000041 ], [ 100.516368382000053, 13.756712125000035 ], [ 100.517371460000049, 13.753099860000077 ], [ 100.519166718000065, 13.752732672000036 ], [ 100.527886491000061, 13.774338363000027 ], [ 100.537424276000081, 13.79785442900004 ], [ 100.533203826000033, 13.799827589000074 ], [ 100.532330992000084, 13.798213085000043 ], [ 100.516497561000051, 13.800358098000061 ], [ 100.513886854000077, 13.795300032000057 ], [ 100.503652722000083, 13.783575449000068 ], [ 100.499039813000081, 13.77266572700006 ] ] ] } },
{ "type": "Feature", "properties": { "district": "Huai Khwang", "district_id": 19 }, "geometry": { "type": "Polygon", "coordinates": [ [ [ 100.604095120000068, 13.751200633000053 ], [ 100.597924834000082, 13.757321488000059 ], [ 100.594910887000083, 13.762585534000038 ], [ 100.593521342000088, 13.779423726000061 ], [ 100.590184927000053, 13.786503221000032 ], [ 100.588383020000038, 13.802839008000035 ], [ 100.588341394000054, 13.802980927000021 ], [ 100.574896225000032, 13.801069838000046 ], [ 100.573416088000045, 13.770911003000037 ], [ 100.566835185000059, 13.76152459900004 ], [ 100.564968500000077, 13.75512621300004 ], [ 100.563297444000057, 13.747890403000042 ], [ 100.598151930000085, 13.741144634000023 ], [ 100.60125180600005, 13.748090111000067 ], [ 100.604095120000068, 13.751200633000053 ] ] ] } },
{ "type": "Feature", "properties": { "district": "Khan Na Yao", "district_id": 20 }, "geometry": { "type": "Polygon", "coordinates": [ [ [ 100.645986850000043, 13.847368251000034 ], [ 100.650214966000078, 13.844833143000074 ], [ 100.647726515000045, 13.844167646000074 ], [ 100.648599748000038, 13.833888783000077 ], [ 100.657304995000061, 13.835574575000066 ], [ 100.657906247000085, 13.832988452000052 ], [ 100.661422670000036, 13.833478608000064 ], [ 100.661265643000036, 13.825779140000066 ], [ 100.660132313000076, 13.824427495000066 ], [ 100.662866591000068, 13.810090302000049 ], [ 100.666646813000057, 13.805101250000064 ], [ 100.668683263000048, 13.805671519000043 ], [ 100.673539328000061, 13.796316345000037 ], [ 100.676566690000072, 13.786744 ], [ 100.67380372000008, 13.783834504000026 ], [ 100.675135341000043, 13.781205881000062 ], [ 100.704963966000037, 13.797679626000047 ], [ 100.700563084000066, 13.80458324500006 ], [ 100.701864077000039, 13.809140273000025 ], [ 100.698100613000065, 13.811848138000073 ], [ 100.696775905000038, 13.81549276100003 ], [ 100.697044026000071, 13.820223163000037 ], [ 100.690644479000071, 13.832351020000033 ], [ 100.687937124000086, 13.834643999000036 ], [ 100.687812731000065, 13.838641833000054 ], [ 100.683848069000078, 13.848130457000025 ], [ 100.676875807000044, 13.851633170000071 ], [ 100.670839124000054, 13.852761274000045 ], [ 100.675457492000078, 13.856381383000041 ], [ 100.669678385000054, 13.85695736100007 ], [ 100.664746781000076, 13.854693028000042 ], [ 100.663199931000065, 13.856033389000061 ], [ 100.661144687000046, 13.852579409000043 ], [ 100.65830303000007, 13.85239137700006 ], [ 100.658640148000075, 13.847763352000072 ], [ 100.648730639000064, 13.846211269000037 ], [ 100.648148988000059, 13.847620618000064 ], [ 100.645986850000043, 13.847368251000034 ] ] ] } },
{ "type": "Feature", "properties": { "district": "Khlong Sam Wa", "district_id": 21 }, "geometry": { "type": "Polygon", "coordinates": [ [ [ 100.675457492000078, 13.856381383000041 ], [ 100.670839124000054, 13.852761274000045 ], [ 100.676875807000044, 13.851633170000071 ], [ 100.683848069000078, 13.848130457000025 ], [ 100.687812731000065, 13.838641833000054 ], [ 100.687937124000086, 13.834643999000036 ], [ 100.690644479000071, 13.832351020000033 ], [ 100.697044026000071, 13.820223163000037 ], [ 100.696775905000038, 13.81549276100003 ], [ 100.705778473000066, 13.821144620000041 ], [ 100.715436738000051, 13.821897660000047 ], [ 100.714568682000049, 13.831335459000059 ], [ 100.720175532000042, 13.831495735000033 ], [ 100.720192455000074, 13.837278720000029 ], [ 100.722322673000065, 13.837492275000045 ], [ 100.722553678000054, 13.827513487000033 ], [ 100.729732394000052, 13.827673738000044 ], [ 100.729657680000059, 13.83645086000007 ], [ 100.735469084000044, 13.838456396000026 ], [ 100.735889325000073, 13.836785145000022 ], [ 100.739928537000083, 13.837395750000042 ], [ 100.744160482000041, 13.83476390800007 ], [ 100.746728450000035, 13.824752735000061 ], [ 100.74931842500007, 13.822072196000022 ], [ 100.798995965000074, 13.849289744000032 ], [ 100.787421596000058, 13.879987173000075 ], [ 100.790944808000063, 13.881906568000034 ], [ 100.795933856000033, 13.890548881000029 ], [ 100.792337659000054, 13.893505661000063 ], [ 100.792593024000041, 13.931387879000056 ], [ 100.751908646000061, 13.918363819000035 ], [ 100.686953376000076, 13.916254426000023 ], [ 100.683786372000043, 13.913543797000045 ], [ 100.683643553000081, 13.911516582000047 ], [ 100.686966261000066, 13.909351489000073 ], [ 100.69228964000007, 13.898095745000035 ], [ 100.692111054000065, 13.886731693000058 ], [ 100.690121520000048, 13.88470925200005 ], [ 100.68992699100005, 13.879699570000071 ], [ 100.684496507000063, 13.874248293000051 ], [ 100.685774761000062, 13.869323983000072 ], [ 100.683114280000041, 13.862001746000033 ], [ 100.680365520000066, 13.858667276000062 ], [ 100.675457492000078, 13.856381383000041 ] ] ] } },
{ "type": "Feature", "properties": { "district": "Khlong San", "district_id": 22 }, "geometry": { "type": "Polygon", "coordinates": [ [ [ 100.50817089700007, 13.712460984000074 ], [ 100.512031695000076, 13.719335614000045 ], [ 100.512298349000048, 13.729392587000063 ], [ 100.509164776000034, 13.735408780000057 ], [ 100.499806690000071, 13.738632557000074 ], [ 100.497647898000082, 13.739218486000027 ], [ 100.492206084000031, 13.723118958000043 ], [ 100.493146127000045, 13.712914210000065 ], [ 100.49863760900007, 13.705137064000041 ], [ 100.50817089700007, 13.712460984000074 ] ] ] } },
{ "type": "Feature", "properties": { "district": "Khlong Toei", "district_id": 23 }, "geometry": { "type": "Polygon", "coordinates": [ [ [ 100.601658937000082, 13.704666227000075 ], [ 100.598406456000077, 13.710325389000047 ], [ 100.550695327000085, 13.742848937000076 ], [ 100.552912289000062, 13.722771623000028 ], [ 100.553753915000073, 13.716543495000053 ], [ 100.554867192000074, 13.705483354000023 ], [ 100.559839923000084, 13.706203358000039 ], [ 100.567125009000051, 13.70451455400007 ], [ 100.577717870000072, 13.700222374000077 ], [ 100.58391953000006, 13.69609611900006 ], [ 100.601658937000082, 13.704666227000075 ] ] ] } },
{ "type": "Feature", "properties": { "district": "Lak Si", "district_id": 24 }, "geometry": { "type": "Polygon", "coordinates": [ [ [ 100.594813283000065, 13.887630844000057 ], [ 100.582738258000063, 13.890774403000023 ], [ 100.587478445000045, 13.899376195000059 ], [ 100.571789460000048, 13.906954042000052 ], [ 100.563183291000087, 13.91333430800006 ], [ 100.558893117000082, 13.914457016000028 ], [ 100.550285182000039, 13.877585603000057 ], [ 100.543629472000077, 13.849628112000062 ], [ 100.557895100000053, 13.854132105000076 ], [ 100.586547205000045, 13.858933983000043 ], [ 100.588143762000072, 13.879615240000021 ], [ 100.594813283000065, 13.887630844000057 ] ] ] } },
{ "type": "Feature", "properties": { "district": "Lat Krabang", "district_id": 25 }, "geometry": { "type": "Polygon", "coordinates": [ [ [ 100.860766813000055, 13.696903409000072 ], [ 100.855068558000085, 13.699272504000021 ], [ 100.878833007000082, 13.737877175000051 ], [ 100.87482207000005, 13.739160355000024 ], [ 100.867064814000059, 13.75182097000004 ], [ 100.864647279000053, 13.765137421000077 ], [ 100.860800766000068, 13.770468383000036 ], [ 100.842630487000065, 13.770976756000039 ], [ 100.837493807000044, 13.767599928000038 ], [ 100.832346599000061, 13.767476747000046 ], [ 100.829232669000078, 13.772183821000056 ], [ 100.822700326000074, 13.777811069000052 ], [ 100.82280832500004, 13.779778265000061 ], [ 100.814745613000071, 13.784276181000052 ], [ 100.808777009000039, 13.781637599000021 ], [ 100.800766627000087, 13.781653851000044 ], [ 100.793889574000048, 13.78386848100007 ], [ 100.796180215000049, 13.789307167000061 ], [ 100.795093110000039, 13.793974302000038 ], [ 100.788548590000062, 13.800390858000071 ], [ 100.782417101000078, 13.798782054000071 ], [ 100.783983029000069, 13.781901615000038 ], [ 100.776730821000058, 13.78320440300007 ], [ 100.764860516000056, 13.781725062000078 ], [ 100.759774706000087, 13.775500778000037 ], [ 100.75540367800005, 13.777777756000035 ], [ 100.746559895000075, 13.777874441000051 ], [ 100.74646468800006, 13.773490920000029 ], [ 100.738943659000086, 13.773224110000058 ], [ 100.738928295000051, 13.777403130000039 ], [ 100.733545261000074, 13.774784271000044 ], [ 100.724441058000082, 13.776302600000065 ], [ 100.720842436000055, 13.778255001000048 ], [ 100.716403176000085, 13.778113848000032 ], [ 100.71608025900008, 13.77169049400004 ], [ 100.706606315000045, 13.756760642000074 ], [ 100.709858230000066, 13.756401503000063 ], [ 100.708393226000055, 13.732496905000062 ], [ 100.709994351000034, 13.716782075000026 ], [ 100.716159300000072, 13.716898804000039 ], [ 100.71624612100004, 13.718189041000073 ], [ 100.752083378000066, 13.715910432000044 ], [ 100.764514543000075, 13.716497030000028 ], [ 100.76674616400004, 13.715277461000028 ], [ 100.783357786000067, 13.716618769000036 ], [ 100.794548593000059, 13.714463680000051 ], [ 100.859347365000076, 13.689560424000035 ], [ 100.860766813000055, 13.696903409000072 ] ] ] } },
{ "type": "Feature", "properties": { "district": "Lat Phrao", "district_id": 26 }, "geometry": { "type": "Polygon", "coordinates": [ [ [ 100.624478120000049, 13.817398727000068 ], [ 100.637121758000035, 13.844668458000058 ], [ 100.632949283000073, 13.842546298000059 ], [ 100.628681464000067, 13.842687044000058 ], [ 100.620002940000063, 13.848368678000043 ], [ 100.606987397000069, 13.849267936000047 ], [ 100.602362135000078, 13.846864564000043 ], [ 100.589866099000062, 13.843929078000031 ], [ 100.591117974000042, 13.837485107000077 ], [ 100.588341394000054, 13.802980927000021 ], [ 100.588383020000038, 13.802839008000035 ], [ 100.596401869000033, 13.801275539000073 ], [ 100.595919295000044, 13.799296216000073 ], [ 100.599593297000069, 13.796149396000033 ], [ 100.605351776000077, 13.795166916000028 ], [ 100.612894636000078, 13.794814783000049 ], [ 100.615064201000052, 13.799774373000048 ], [ 100.624478120000049, 13.817398727000068 ] ] ] } },
{ "type": "Feature", "properties": { "district": "Min Buri", "district_id": 27 }, "geometry": { "type": "Polygon", "coordinates": [ [ [ 100.704963966000037, 13.797679626000047 ], [ 100.706080590000056, 13.798328004000041 ], [ 100.707683481000061, 13.795655230000023 ], [ 100.716403176000085, 13.778113848000032 ], [ 100.720842436000055, 13.778255001000048 ], [ 100.724441058000082, 13.776302600000065 ], [ 100.733545261000074, 13.774784271000044 ], [ 100.738928295000051, 13.777403130000039 ], [ 100.738943659000086, 13.773224110000058 ], [ 100.74646468800006, 13.773490920000029 ], [ 100.746559895000075, 13.777874441000051 ], [ 100.75540367800005, 13.777777756000035 ], [ 100.759774706000087, 13.775500778000037 ], [ 100.764860516000056, 13.781725062000078 ], [ 100.776730821000058, 13.78320440300007 ], [ 100.783983029000069, 13.781901615000038 ], [ 100.782417101000078, 13.798782054000071 ], [ 100.788548590000062, 13.800390858000071 ], [ 100.795093110000039, 13.793974302000038 ], [ 100.797892561000083, 13.798701751000067 ], [ 100.807746529000042, 13.807982100000061 ], [ 100.803489079000087, 13.807973872000048 ], [ 100.801768220000042, 13.80945838100007 ], [ 100.800916312000084, 13.817453729000022 ], [ 100.803925336000077, 13.825869813000054 ], [ 100.805905945000063, 13.826092161000076 ], [ 100.807757927000068, 13.839367292000077 ], [ 100.806510786000047, 13.84409701900006 ], [ 100.801830977000066, 13.842515162000041 ], [ 100.798995965000074, 13.849289744000032 ], [ 100.74931842500007, 13.822072196000022 ], [ 100.746728450000035, 13.824752735000061 ], [ 100.744160482000041, 13.83476390800007 ], [ 100.739928537000083, 13.837395750000042 ], [ 100.735889325000073, 13.836785145000022 ], [ 100.735469084000044, 13.838456396000026 ], [ 100.729657680000059, 13.83645086000007 ], [ 100.729732394000052, 13.827673738000044 ], [ 100.722553678000054, 13.827513487000033 ], [ 100.722322673000065, 13.837492275000045 ], [ 100.720192455000074, 13.837278720000029 ], [ 100.720175532000042, 13.831495735000033 ], [ 100.714568682000049, 13.831335459000059 ], [ 100.715436738000051, 13.821897660000047 ], [ 100.705778473000066, 13.821144620000041 ], [ 100.696775905000038, 13.81549276100003 ], [ 100.698100613000065, 13.811848138000073 ], [ 100.701864077000039, 13.809140273000025 ], [ 100.700563084000066, 13.80458324500006 ], [ 100.704963966000037, 13.797679626000047 ] ] ] } },
{ "type": "Feature", "properties": { "district": "Nong Chok", "district_id": 28 }, "geometry": { "type": "Polygon", "coordinates": [ [ [ 100.913983118000033, 13.946490894000021 ], [ 100.863307873000053, 13.939143053000066 ], [ 100.792593024000041, 13.931387879000056 ], [ 100.792337659000054, 13.893505661000063 ], [ 100.795933856000033, 13.890548881000029 ], [ 100.790944808000063, 13.881906568000034 ], [ 100.787421596000058, 13.879987173000075 ], [ 100.798995965000074, 13.849289744000032 ], [ 100.801830977000066, 13.842515162000041 ], [ 100.806510786000047, 13.84409701900006 ], [ 100.807757927000068, 13.839367292000077 ], [ 100.805905945000063, 13.826092161000076 ], [ 100.803925336000077, 13.825869813000054 ], [ 100.800916312000084, 13.817453729000022 ], [ 100.801768220000042, 13.80945838100007 ], [ 100.803489079000087, 13.807973872000048 ], [ 100.807746529000042, 13.807982100000061 ], [ 100.797892561000083, 13.798701751000067 ], [ 100.795093110000039, 13.793974302000038 ], [ 100.796180215000049, 13.789307167000061 ], [ 100.793889574000048, 13.78386848100007 ], [ 100.800766627000087, 13.781653851000044 ], [ 100.808777009000039, 13.781637599000021 ], [ 100.814745613000071, 13.784276181000052 ], [ 100.82280832500004, 13.779778265000061 ], [ 100.822700326000074, 13.777811069000052 ], [ 100.829232669000078, 13.772183821000056 ], [ 100.832346599000061, 13.767476747000046 ], [ 100.837493807000044, 13.767599928000038 ], [ 100.842630487000065, 13.770976756000039 ], [ 100.860800766000068, 13.770468383000036 ], [ 100.864647279000053, 13.765137421000077 ], [ 100.867064814000059, 13.75182097000004 ], [ 100.87482207000005, 13.739160355000024 ], [ 100.878833007000082, 13.737877175000051 ], [ 100.909794635000083, 13.790478869000026 ], [ 100.928272351000032, 13.801280228000053 ], [ 100.930851890000042, 13.804404244000068 ], [ 100.93851625700006, 13.814255677000062 ], [ 100.907549278000033, 13.838104561000023 ], [ 100.912684787000046, 13.846797639000044 ], [ 100.904204648000075, 13.848422871000025 ], [ 100.905894150000051, 13.855226551000044 ], [ 100.906785141000057, 13.885262996000051 ], [ 100.913983118000033, 13.946490894000021 ] ] ] } },
{ "type": "Feature", "properties": { "district": "Nong Khaem", "district_id": 29 }, "geometry": { "type": "Polygon", "coordinates": [ [ [ 100.384844482000062, 13.671401884000034 ], [ 100.385235775000069, 13.67593987500004 ], [ 100.381407709000086, 13.691572330000042 ], [ 100.359359482000059, 13.738002047000066 ], [ 100.337455281000075, 13.736036289000026 ], [ 100.337485818000061, 13.733908920000033 ], [ 100.335140428000045, 13.733485180000059 ], [ 100.336743631000047, 13.729793667000024 ], [ 100.334773382000037, 13.728392823000036 ], [ 100.335739, 13.722985034000033 ], [ 100.330227860000036, 13.721216534000064 ], [ 100.330332856000041, 13.719719976000022 ], [ 100.333110726000086, 13.720837635000066 ], [ 100.338772100000085, 13.712768633000053 ], [ 100.336116762000074, 13.71082296000003 ], [ 100.33414435800006, 13.713061560000028 ], [ 100.332325335000064, 13.712464130000058 ], [ 100.333426902000042, 13.706487572000071 ], [ 100.332353104000049, 13.69991770200005 ], [ 100.330558200000041, 13.699174627000048 ], [ 100.333567164000044, 13.681404414000042 ], [ 100.336068941000065, 13.676991674000021 ], [ 100.337599800000078, 13.677326406000077 ], [ 100.341251029000034, 13.661313715000063 ], [ 100.339383547000068, 13.654990333000057 ], [ 100.34683704300005, 13.655339513000058 ], [ 100.349523885000053, 13.655126660000064 ], [ 100.351107887000069, 13.657480200000066 ], [ 100.35661375400008, 13.65990043000005 ], [ 100.357257395000033, 13.661681299000065 ], [ 100.360565587000053, 13.661301027000036 ], [ 100.384844482000062, 13.671401884000034 ] ] ] } },
{ "type": "Feature", "properties": { "district": "Pathum Wan", "district_id": 30 }, "geometry": { "type": "Polygon", "coordinates": [ [ [ 100.544745374000058, 13.726166253000031 ], [ 100.552912289000062, 13.722771623000028 ], [ 100.550695327000085, 13.742848937000076 ], [ 100.550075438000079, 13.748403346000032 ], [ 100.525289620000081, 13.749302932000035 ], [ 100.519166718000065, 13.752732672000036 ], [ 100.517371460000049, 13.753099860000077 ], [ 100.515687797000055, 13.738046738000037 ], [ 100.544745374000058, 13.726166253000031 ] ] ] } },
{ "type": "Feature", "properties": { "district": "Phasi Charoen", "district_id": 31 }, "geometry": { "type": "Polygon", "coordinates": [ [ [ 100.437733905000073, 13.693684476000044 ], [ 100.434700138000039, 13.698903319000067 ], [ 100.439113275000068, 13.709361467000065 ], [ 100.449985339000079, 13.705328880000025 ], [ 100.452744352000082, 13.710118799000043 ], [ 100.455890095000086, 13.708429349000028 ], [ 100.455197235000071, 13.712577486000043 ], [ 100.463335586000085, 13.714834017000044 ], [ 100.462839612000039, 13.717891199000064 ], [ 100.469234675000052, 13.715962863000073 ], [ 100.471637968000039, 13.722443215000055 ], [ 100.467191312000068, 13.725267655000039 ], [ 100.462933732000067, 13.732249306000028 ], [ 100.462052192000044, 13.744419748000041 ], [ 100.457130140000061, 13.744060668000031 ], [ 100.456171892000043, 13.742128485000023 ], [ 100.454423388000066, 13.742619359000059 ], [ 100.449915498000053, 13.74049758600006 ], [ 100.435051376000047, 13.740088297000057 ], [ 100.413389564000056, 13.74793375400003 ], [ 100.414408079000054, 13.738800737000076 ], [ 100.415972924000073, 13.738278807000029 ], [ 100.415511016000039, 13.735832908000077 ], [ 100.416668108000067, 13.735610698000073 ], [ 100.417756244000032, 13.731224288000021 ], [ 100.424869590000071, 13.732060242000045 ], [ 100.42782137100005, 13.687613030000023 ], [ 100.437733905000073, 13.693684476000044 ] ] ] } },
{ "type": "Feature", "properties": { "district": "Phaya Thai", "district_id": 32 }, "geometry": { "type": "Polygon", "coordinates": [ [ [ 100.537424276000081, 13.79785442900004 ], [ 100.527886491000061, 13.774338363000027 ], [ 100.543431214000066, 13.762715976000038 ], [ 100.548342729000069, 13.763548216000061 ], [ 100.561307459000034, 13.787063635000038 ], [ 100.561626586000045, 13.794959305000077 ], [ 100.537424276000081, 13.79785442900004 ] ] ] } },
{ "type": "Feature", "properties": { "district": "Phra Khanong", "district_id": 33 }, "geometry": { "type": "Polygon", "coordinates": [ [ [ 100.640236003000041, 13.677941022000027 ], [ 100.637174792000053, 13.694967227000063 ], [ 100.634111124000071, 13.700761585000066 ], [ 100.632943201000046, 13.703033 ], [ 100.623208821000048, 13.703115572000058 ], [ 100.62239489500007, 13.705007862000059 ], [ 100.616317461000051, 13.704146708000053 ], [ 100.615892633000044, 13.706841972000063 ], [ 100.606419612000082, 13.705349186000035 ], [ 100.605742550000059, 13.706509271000073 ], [ 100.601658937000082, 13.704666227000075 ], [ 100.58391953000006, 13.69609611900006 ], [ 100.588613627000086, 13.690039910000053 ], [ 100.588769839000065, 13.683015013000045 ], [ 100.600332527000035, 13.679943095000056 ], [ 100.610524951000059, 13.684276433000036 ], [ 100.622771488000069, 13.684428812000021 ], [ 100.624654929000087, 13.678408503000071 ], [ 100.640236003000041, 13.677941022000027 ] ] ] } },
{ "type": "Feature", "properties": { "district": "Phra Nakhon", "district_id": 34 }, "geometry": { "type": "Polygon", "coordinates": [ [ [ 100.490971988000069, 13.761928724000029 ], [ 100.487940010000045, 13.756848931000036 ], [ 100.488299250000068, 13.748209494000037 ], [ 100.491969798000071, 13.742172671000048 ], [ 100.497647898000082, 13.739218486000027 ], [ 100.499806690000071, 13.738632557000074 ], [ 100.503898198000059, 13.746847599000034 ], [ 100.505707938000057, 13.756182284000033 ], [ 100.509399246000044, 13.763650817000041 ], [ 100.503673636000087, 13.769952149000062 ], [ 100.499039813000081, 13.77266572700006 ], [ 100.49499744700006, 13.765741690000027 ], [ 100.490971988000069, 13.761928724000029 ] ] ] } },
{ "type": "Feature", "properties": { "district": "Pom Prap Sattru Phai", "district_id": 35 }, "geometry": { "type": "Polygon", "coordinates": [ [ [ 100.509399246000044, 13.763650817000041 ], [ 100.505707938000057, 13.756182284000033 ], [ 100.503898198000059, 13.746847599000034 ], [ 100.515687797000055, 13.738046738000037 ], [ 100.517371460000049, 13.753099860000077 ], [ 100.516368382000053, 13.756712125000035 ], [ 100.509399246000044, 13.763650817000041 ] ] ] } },
{ "type": "Feature", "properties": { "district": "Prawet", "district_id": 36 }, "geometry": { "type": "Polygon", "coordinates": [ [ [ 100.653792291000059, 13.668975588000023 ], [ 100.655435536000084, 13.67228678400005 ], [ 100.659867682000083, 13.670159605000038 ], [ 100.661149729000044, 13.671703798000067 ], [ 100.666907569000045, 13.668169753000029 ], [ 100.666466526000079, 13.667212900000038 ], [ 100.678623037000079, 13.661364491000029 ], [ 100.698271323000085, 13.65632908300006 ], [ 100.69975932400007, 13.663843751000059 ], [ 100.704664815000058, 13.672976601000073 ], [ 100.705462270000055, 13.678801858000043 ], [ 100.706412717000035, 13.678615355000034 ], [ 100.711093487000085, 13.701201226000023 ], [ 100.712381350000044, 13.701243924000039 ], [ 100.709994351000034, 13.716782075000026 ], [ 100.708393226000055, 13.732496905000062 ], [ 100.659010556000055, 13.737862488000076 ], [ 100.649796374000061, 13.728768638000076 ], [ 100.647929962000035, 13.717473049000034 ], [ 100.65154958100004, 13.718250777000037 ], [ 100.649187758000039, 13.707435986000064 ], [ 100.650996973000076, 13.702974532000042 ], [ 100.634111124000071, 13.700761585000066 ], [ 100.637174792000053, 13.694967227000063 ], [ 100.640236003000041, 13.677941022000027 ], [ 100.64523315200006, 13.669607532000043 ], [ 100.653792291000059, 13.668975588000023 ] ] ] } },
{ "type": "Feature", "properties": { "district": "Rat Burana", "district_id": 37 }, "geometry": { "type": "Polygon", "coordinates": [ [ [ 100.489998091000075, 13.695261866000067 ], [ 100.482545280000068, 13.694834889000049 ], [ 100.481510259000061, 13.690485569000032 ], [ 100.488983287000053, 13.684649896000053 ], [ 100.487359314000059, 13.682491625000068 ], [ 100.488534539000057, 13.679530983000063 ], [ 100.480190632000074, 13.669203700000025 ], [ 100.482132512000078, 13.664770629000031 ], [ 100.475563556000054, 13.663577070000031 ], [ 100.475796512000045, 13.661882128000059 ], [ 100.482327330000032, 13.663070828000059 ], [ 100.485390541000072, 13.657828497000025 ], [ 100.493252615000074, 13.655744170000048 ], [ 100.494040866000034, 13.657261256000027 ], [ 100.501007841000046, 13.652963114000045 ], [ 100.50822701900006, 13.662746408000032 ], [ 100.513280069000075, 13.66074493900004 ], [ 100.517515207000088, 13.661599672000023 ], [ 100.517590872000085, 13.667289883000024 ], [ 100.521063597000079, 13.669191739000041 ], [ 100.520418629000062, 13.670989284000029 ], [ 100.522001174000081, 13.673561966000022 ], [ 100.520401051000078, 13.675643335000075 ], [ 100.52340115700008, 13.677882705000059 ], [ 100.516981846000078, 13.682678629000065 ], [ 100.495558776000053, 13.688490226000056 ], [ 100.491824693000069, 13.691569282000046 ], [ 100.489998091000075, 13.695261866000067 ] ] ] } },
{ "type": "Feature", "properties": { "district": "Ratchathewi", "district_id": 38 }, "geometry": { "type": "Polygon", "coordinates": [ [ [ 100.543431214000066, 13.762715976000038 ], [ 100.527886491000061, 13.774338363000027 ], [ 100.519166718000065, 13.752732672000036 ], [ 100.525289620000081, 13.749302932000035 ], [ 100.550075438000079, 13.748403346000032 ], [ 100.563297444000057, 13.747890403000042 ], [ 100.564968500000077, 13.75512621300004 ], [ 100.552465392000045, 13.75598823200005 ], [ 100.550397282000063, 13.758688550000045 ], [ 100.543431214000066, 13.762715976000038 ] ] ] } },
{ "type": "Feature", "properties": { "district": "Sai Mai", "district_id": 39 }, "geometry": { "type": "Polygon", "coordinates": [ [ [ 100.684496507000063, 13.874248293000051 ], [ 100.68992699100005, 13.879699570000071 ], [ 100.690121520000048, 13.88470925200005 ], [ 100.692111054000065, 13.886731693000058 ], [ 100.69228964000007, 13.898095745000035 ], [ 100.686966261000066, 13.909351489000073 ], [ 100.683643553000081, 13.911516582000047 ], [ 100.683786372000043, 13.913543797000045 ], [ 100.686953376000076, 13.916254426000023 ], [ 100.68973081200005, 13.931053496000061 ], [ 100.640877524000075, 13.931411085000036 ], [ 100.639614431000041, 13.932372588000021 ], [ 100.639771708000069, 13.937588141000049 ], [ 100.62552439500007, 13.938205280000034 ], [ 100.62539418700004, 13.947849156000075 ], [ 100.622545459000037, 13.950251041000058 ], [ 100.626593626000044, 13.926129569000068 ], [ 100.611131830000033, 13.899779846000058 ], [ 100.608696688000066, 13.89570352100003 ], [ 100.611363911000069, 13.892374723000046 ], [ 100.608797784000046, 13.888467928000068 ], [ 100.612369642000033, 13.886220739000066 ], [ 100.623883237000086, 13.882939403000023 ], [ 100.629542807000064, 13.885542878000024 ], [ 100.64033327900006, 13.886746310000035 ], [ 100.642952855000033, 13.885728264000022 ], [ 100.644278084000064, 13.88275800200006 ], [ 100.652633821000052, 13.882945613000061 ], [ 100.653111064000086, 13.886380402000043 ], [ 100.655336638000051, 13.885582849000059 ], [ 100.656186107000053, 13.881507505000059 ], [ 100.659592068000052, 13.879494058000034 ], [ 100.662531656000056, 13.878854804000071 ], [ 100.664812316000052, 13.881073327000024 ], [ 100.669335445000058, 13.88113297600006 ], [ 100.67253097400004, 13.879678031000026 ], [ 100.673808066000049, 13.881099594000034 ], [ 100.675809233000052, 13.879105022000033 ], [ 100.681312140000045, 13.879676755000048 ], [ 100.684496507000063, 13.874248293000051 ] ] ] } },
{ "type": "Feature", "properties": { "district": "Samphanthawong", "district_id": 40 }, "geometry": { "type": "Polygon", "coordinates": [ [ [ 100.515687797000055, 13.738046738000037 ], [ 100.503898198000059, 13.746847599000034 ], [ 100.499806690000071, 13.738632557000074 ], [ 100.509164776000034, 13.735408780000057 ], [ 100.512298349000048, 13.729392587000063 ], [ 100.515502248000075, 13.732442945000059 ], [ 100.515687797000055, 13.738046738000037 ] ] ] } },
{ "type": "Feature", "properties": { "district": "Saphan Sung", "district_id": 41 }, "geometry": { "type": "Polygon", "coordinates": [ [ [ 100.659086135000052, 13.738385275000041 ], [ 100.659010556000055, 13.737862488000076 ], [ 100.708393226000055, 13.732496905000062 ], [ 100.709858230000066, 13.756401503000063 ], [ 100.706606315000045, 13.756760642000074 ], [ 100.71608025900008, 13.77169049400004 ], [ 100.716403176000085, 13.778113848000032 ], [ 100.707683481000061, 13.795655230000023 ], [ 100.706080590000056, 13.798328004000041 ], [ 100.704963966000037, 13.797679626000047 ], [ 100.675135341000043, 13.781205881000062 ], [ 100.664624408000066, 13.775369817000069 ], [ 100.668802897000035, 13.766623625000022 ], [ 100.669718972000055, 13.756283395000025 ], [ 100.678886566000074, 13.752104317000033 ], [ 100.67701455200006, 13.749064367000074 ], [ 100.672255852000035, 13.749486771000022 ], [ 100.66631811700006, 13.747047328000065 ], [ 100.663034630000084, 13.742206295000074 ], [ 100.663330947000077, 13.740227551000032 ], [ 100.659086135000052, 13.738385275000041 ] ] ] } },
{ "type": "Feature", "properties": { "district": "Sathon", "district_id": 42 }, "geometry": { "type": "Polygon", "coordinates": [ [ [ 100.529945739000084, 13.702543641000034 ], [ 100.528630965000048, 13.70598525500003 ], [ 100.534160617000055, 13.705539446000046 ], [ 100.537610019000056, 13.707226007000031 ], [ 100.539146422000044, 13.70442538900005 ], [ 100.543614317000049, 13.707010786000069 ], [ 100.541681858000061, 13.710600009000075 ], [ 100.549017609000032, 13.719250706000025 ], [ 100.553753915000073, 13.716543495000053 ], [ 100.552912289000062, 13.722771623000028 ], [ 100.544745374000058, 13.726166253000031 ], [ 100.517414002000066, 13.718105788000059 ], [ 100.512031695000076, 13.719335614000045 ], [ 100.50817089700007, 13.712460984000074 ], [ 100.516953740000076, 13.709648942000058 ], [ 100.514625296000077, 13.704920816000026 ], [ 100.519675719000077, 13.703222842000059 ], [ 100.520642896000084, 13.704169848000049 ], [ 100.524924426000041, 13.700885524000057 ], [ 100.529945739000084, 13.702543641000034 ] ] ] } },
{ "type": "Feature", "properties": { "district": "Suan Luang", "district_id": 43 }, "geometry": { "type": "Polygon", "coordinates": [ [ [ 100.60125180600005, 13.748090111000067 ], [ 100.598151930000085, 13.741144634000023 ], [ 100.598465893000082, 13.738299169000072 ], [ 100.605022141000063, 13.737714568000058 ], [ 100.605281719000061, 13.720144007000044 ], [ 100.606805379000036, 13.719028681000054 ], [ 100.606738113000063, 13.716143808000027 ], [ 100.601879566000036, 13.711945774000071 ], [ 100.605742550000059, 13.706509271000073 ], [ 100.606419612000082, 13.705349186000035 ], [ 100.615892633000044, 13.706841972000063 ], [ 100.616317461000051, 13.704146708000053 ], [ 100.62239489500007, 13.705007862000059 ], [ 100.623208821000048, 13.703115572000058 ], [ 100.632943201000046, 13.703033 ], [ 100.634111124000071, 13.700761585000066 ], [ 100.650996973000076, 13.702974532000042 ], [ 100.649187758000039, 13.707435986000064 ], [ 100.65154958100004, 13.718250777000037 ], [ 100.647929962000035, 13.717473049000034 ], [ 100.649796374000061, 13.728768638000076 ], [ 100.659010556000055, 13.737862488000076 ], [ 100.659086135000052, 13.738385275000041 ], [ 100.648605092000082, 13.741820346000054 ], [ 100.647476080000047, 13.742633450000028 ], [ 100.648550294000074, 13.744072596000024 ], [ 100.645563788000061, 13.746450692000053 ], [ 100.635810138000068, 13.750120755000069 ], [ 100.611090408000052, 13.743826138000031 ], [ 100.60125180600005, 13.748090111000067 ] ] ] } },
{ "type": "Feature", "properties": { "district": "Taling Chan", "district_id": 44 }, "geometry": { "type": "Polygon", "coordinates": [ [ [ 100.413389564000056, 13.74793375400003 ], [ 100.435051376000047, 13.740088297000057 ], [ 100.449915498000053, 13.74049758600006 ], [ 100.454423388000066, 13.742619359000059 ], [ 100.456171892000043, 13.742128485000023 ], [ 100.457130140000061, 13.744060668000031 ], [ 100.462052192000044, 13.744419748000041 ], [ 100.46196302900006, 13.75155976800005 ], [ 100.45414407700008, 13.762992496000038 ], [ 100.45356580400005, 13.767977694000024 ], [ 100.457610904000035, 13.777296030000059 ], [ 100.467677970000068, 13.779695189000051 ], [ 100.465938690000087, 13.787158609000073 ], [ 100.466176870000083, 13.788917403000028 ], [ 100.469658381000045, 13.794790355000032 ], [ 100.464154291000057, 13.797313860000031 ], [ 100.411057705000076, 13.801346720000026 ], [ 100.40618470000004, 13.749437693000061 ], [ 100.413389564000056, 13.74793375400003 ] ] ] } },
{ "type": "Feature", "properties": { "district": "Thawi Watthana", "district_id": 45 }, "geometry": { "type": "Polygon", "coordinates": [ [ [ 100.40618470000004, 13.749437693000061 ], [ 100.411057705000076, 13.801346720000026 ], [ 100.327912387000083, 13.80412552100006 ], [ 100.330696831000068, 13.798145851000072 ], [ 100.33389502600005, 13.782166670000038 ], [ 100.331904701000042, 13.781375941000022 ], [ 100.331963368000061, 13.777622231000066 ], [ 100.33094023700005, 13.777563648000068 ], [ 100.330103982000082, 13.76309221200006 ], [ 100.333024654000042, 13.759589177000066 ], [ 100.332777558000032, 13.755373314000053 ], [ 100.334479133000059, 13.755217604000052 ], [ 100.335384389000069, 13.753286999000068 ], [ 100.334988058000079, 13.747094624000056 ], [ 100.337455281000075, 13.736036289000026 ], [ 100.359359482000059, 13.738002047000066 ], [ 100.352683349000074, 13.752164031000063 ], [ 100.369106359000057, 13.753897702000074 ], [ 100.40618470000004, 13.749437693000061 ] ] ] } },
{ "type": "Feature", "properties": { "district": "Thon Buri", "district_id": 46 }, "geometry": { "type": "Polygon", "coordinates": [ [ [ 100.49863760900007, 13.705137064000041 ], [ 100.493146127000045, 13.712914210000065 ], [ 100.492206084000031, 13.723118958000043 ], [ 100.497647898000082, 13.739218486000027 ], [ 100.491969798000071, 13.742172671000048 ], [ 100.487377633000051, 13.735195452000028 ], [ 100.484574891000079, 13.724873182000067 ], [ 100.478561568000032, 13.722594229000038 ], [ 100.471637968000039, 13.722443215000055 ], [ 100.469234675000052, 13.715962863000073 ], [ 100.468535800000041, 13.712388479000026 ], [ 100.471920242000067, 13.710365916000057 ], [ 100.476412050000079, 13.711178277000045 ], [ 100.479540932000077, 13.69803894100005 ], [ 100.482545280000068, 13.694834889000049 ], [ 100.489998091000075, 13.695261866000067 ], [ 100.492007730000068, 13.700614447000078 ], [ 100.49863760900007, 13.705137064000041 ] ] ] } },
{ "type": "Feature", "properties": { "district": "Thung Khru", "district_id": 47 }, "geometry": { "type": "Polygon", "coordinates": [ [ [ 100.476930166000045, 13.602955251000026 ], [ 100.47692889700005, 13.599320183000032 ], [ 100.480629425000075, 13.598007395000025 ], [ 100.481913080000083, 13.592708303000052 ], [ 100.488465831000042, 13.58946181500005 ], [ 100.491196460000083, 13.58615773300005 ], [ 100.496706269000072, 13.588894774000039 ], [ 100.499041699000031, 13.591951688000051 ], [ 100.499637586000063, 13.595640960000026 ], [ 100.50481534000005, 13.597696220000046 ], [ 100.511511381000048, 13.596854386000075 ], [ 100.513744270000075, 13.602594209000074 ], [ 100.521037943000067, 13.605141864000075 ], [ 100.520347250000043, 13.609010611000031 ], [ 100.516387085000076, 13.612715625000021 ], [ 100.514240487000052, 13.628379719000066 ], [ 100.518069592000074, 13.634875 ], [ 100.515095838000036, 13.639479597000047 ], [ 100.515353103000052, 13.64502948300003 ], [ 100.516954754000039, 13.645709839000062 ], [ 100.516224358000045, 13.651347356000031 ], [ 100.517515207000088, 13.661599672000023 ], [ 100.513280069000075, 13.66074493900004 ], [ 100.50822701900006, 13.662746408000032 ], [ 100.501007841000046, 13.652963114000045 ], [ 100.494040866000034, 13.657261256000027 ], [ 100.493252615000074, 13.655744170000048 ], [ 100.485390541000072, 13.657828497000025 ], [ 100.482327330000032, 13.663070828000059 ], [ 100.475796512000045, 13.661882128000059 ], [ 100.475891573000069, 13.660888700000044 ], [ 100.470070049000071, 13.660184791000063 ], [ 100.470333673000084, 13.659040329000049 ], [ 100.475654449000046, 13.63054298000003 ], [ 100.472147010000072, 13.62406782000005 ], [ 100.476195008000047, 13.620111494000071 ], [ 100.478376625000067, 13.619777083000031 ], [ 100.481712076000065, 13.615343514000074 ], [ 100.479581718000077, 13.606089841000028 ], [ 100.476930166000045, 13.602955251000026 ] ] ] } },
{ "type": "Feature", "properties": { "district": "Vadhana", "district_id": 48 }, "geometry": { "type": "Polygon", "coordinates": [ [ [ 100.563297444000057, 13.747890403000042 ], [ 100.550075438000079, 13.748403346000032 ], [ 100.550695327000085, 13.742848937000076 ], [ 100.598406456000077, 13.710325389000047 ], [ 100.601658937000082, 13.704666227000075 ], [ 100.605742550000059, 13.706509271000073 ], [ 100.601879566000036, 13.711945774000071 ], [ 100.606738113000063, 13.716143808000027 ], [ 100.606805379000036, 13.719028681000054 ], [ 100.605281719000061, 13.720144007000044 ], [ 100.605022141000063, 13.737714568000058 ], [ 100.598465893000082, 13.738299169000072 ], [ 100.598151930000085, 13.741144634000023 ], [ 100.563297444000057, 13.747890403000042 ] ] ] } },
{ "type": "Feature", "properties": { "district": "Wang Thonglang", "district_id": 49 }, "geometry": { "type": "Polygon", "coordinates": [ [ [ 100.615064201000052, 13.799774373000048 ], [ 100.612894636000078, 13.794814783000049 ], [ 100.605351776000077, 13.795166916000028 ], [ 100.599593297000069, 13.796149396000033 ], [ 100.595919295000044, 13.799296216000073 ], [ 100.596401869000033, 13.801275539000073 ], [ 100.588383020000038, 13.802839008000035 ], [ 100.590184927000053, 13.786503221000032 ], [ 100.593521342000088, 13.779423726000061 ], [ 100.594910887000083, 13.762585534000038 ], [ 100.597924834000082, 13.757321488000059 ], [ 100.604095120000068, 13.751200633000053 ], [ 100.615246889000048, 13.761274456000024 ], [ 100.630489333000071, 13.763254790000076 ], [ 100.628272913000046, 13.775646442000038 ], [ 100.629248748000066, 13.775091386000042 ], [ 100.63065504900004, 13.784105992000036 ], [ 100.629049330000043, 13.788697543000069 ], [ 100.625913079000043, 13.788103773000046 ], [ 100.623636508000061, 13.800218648000055 ], [ 100.615064201000052, 13.799774373000048 ] ] ] } },
{ "type": "Feature", "properties": { "district": "Yan Nawa", "district_id": 50 }, "geometry": { "type": "Polygon", "coordinates": [ [ [ 100.516981846000078, 13.682678629000065 ], [ 100.52340115700008, 13.677882705000059 ], [ 100.530806873000074, 13.671738150000067 ], [ 100.536549599000068, 13.669280956000023 ], [ 100.541897224000081, 13.669406051000067 ], [ 100.547356679000075, 13.672603031000051 ], [ 100.551624720000063, 13.67976728800005 ], [ 100.552583705000075, 13.68796425000005 ], [ 100.551398431000052, 13.700082983000073 ], [ 100.554867192000074, 13.705483354000023 ], [ 100.553753915000073, 13.716543495000053 ], [ 100.549017609000032, 13.719250706000025 ], [ 100.541681858000061, 13.710600009000075 ], [ 100.543614317000049, 13.707010786000069 ], [ 100.539146422000044, 13.70442538900005 ], [ 100.537610019000056, 13.707226007000031 ], [ 100.534160617000055, 13.705539446000046 ], [ 100.528630965000048, 13.70598525500003 ], [ 100.529945739000084, 13.702543641000034 ], [ 100.531760578000046, 13.698253744000056 ], [ 100.516981846000078, 13.682678629000065 ] ] ] } }
]
}
